{
  "links" : {
    "next" : "https://api.nasa.gov/neo/rest/v1/feed?start_date=2011-09-16&end_date=2011-09-16&detailed=true&api_key=t0TVs3DtDT2H8Oy2Zy8m2eVrNsAVKAexjcZXUckd",
    "prev" : "https://api.nasa.gov/neo/rest/v1/feed?start_date=2011-09-14&end_date=2011-09-14&detailed=true&api_key=t0TVs3DtDT2H8Oy2Zy8m2eVrNsAVKAexjcZXUckd",
    "self" : "https://api.nasa.gov/neo/rest/v1/feed?start_date=2011-09-15&end_date=2011-09-15&detailed=true&api_key=t0TVs3DtDT2H8Oy2Zy8m2eVrNsAVKAexjcZXUckd"
  },
  "element_count" : 8,
  "near_earth_objects" : {
    "2011-09-15" : [ {
      "links" : {
        "self" : "https://api.nasa.gov/neo/rest/v1/neo/3600243?api_key=t0TVs3DtDT2H8Oy2Zy8m2eVrNsAVKAexjcZXUckd"
      },
      "neo_reference_id" : "3600243",
      "name" : "(2012 EB)",
      "nasa_jpl_url" : "http://ssd.jpl.nasa.gov/sbdb.cgi?sstr=3600243",
      "absolute_magnitude_h" : 23.8,
      "estimated_diameter" : {
        "kilometers" : {
          "estimated_diameter_min" : 0.046190746,
          "estimated_diameter_max" : 0.1032856481
        },
        "meters" : {
          "estimated_diameter_min" : 46.1907460282,
          "estimated_diameter_max" : 103.2856480504
        },
        "miles" : {
          "estimated_diameter_min" : 0.0287015901,
          "estimated_diameter_max" : 0.0641787064
        },
        "feet" : {
          "estimated_diameter_min" : 151.544447199,
          "estimated_diameter_max" : 338.8636855496
        }
      },
      "is_potentially_hazardous_asteroid" : false,
      "close_approach_data" : [ {
        "close_approach_date" : "2011-09-15",
        "epoch_date_close_approach" : 1316070000000,
        "relative_velocity" : {
          "kilometers_per_second" : "8.6249881927",
          "kilometers_per_hour" : "31049.9574938474",
          "miles_per_hour" : "19293.2360883298"
        },
        "miss_distance" : {
          "astronomical" : "0.1133817438",
          "lunar" : "44.1054992676",
          "kilometers" : "16961668",
          "miles" : "10539492"
        },
        "orbiting_body" : "Earth"
      } ],
      "orbital_data" : {
        "orbit_id" : "11",
        "orbit_determination_date" : "2017-04-06 08:50:41",
        "orbit_uncertainty" : "7",
        "minimum_orbit_intersection" : ".0439002",
        "jupiter_tisserand_invariant" : "5.708",
        "epoch_osculation" : "2458000.5",
        "eccentricity" : ".07832034957198102",
        "semi_major_axis" : "1.076059434051177",
        "inclination" : "15.82515173780005",
        "ascending_node_longitude" : "344.4886208886115",
        "orbital_period" : "407.7113634493005",
        "perihelion_distance" : ".9917820830160604",
        "perihelion_argument" : "115.0586295725428",
        "aphelion_distance" : "1.160336785086293",
        "perihelion_time" : "2457966.221517773892",
        "mean_anomaly" : "30.26713186750146",
        "mean_motion" : ".8829775970783471",
        "equinox" : "J2000"
      }
    }, {
      "links" : {
        "self" : "https://api.nasa.gov/neo/rest/v1/neo/3704767?api_key=t0TVs3DtDT2H8Oy2Zy8m2eVrNsAVKAexjcZXUckd"
      },
      "neo_reference_id" : "3704767",
      "name" : "(2015 BE92)",
      "nasa_jpl_url" : "http://ssd.jpl.nasa.gov/sbdb.cgi?sstr=3704767",
      "absolute_magnitude_h" : 28.1,
      "estimated_diameter" : {
        "kilometers" : {
          "estimated_diameter_min" : 0.0063760979,
          "estimated_diameter_max" : 0.0142573883
        },
        "meters" : {
          "estimated_diameter_min" : 6.3760978988,
          "estimated_diameter_max" : 14.2573883328
        },
        "miles" : {
          "estimated_diameter_min" : 0.0039619223,
          "estimated_diameter_max" : 0.0088591276
        },
        "feet" : {
          "estimated_diameter_min" : 20.9189570301,
          "estimated_diameter_max" : 46.7762099378
        }
      },
      "is_potentially_hazardous_asteroid" : false,
      "close_approach_data" : [ {
        "close_approach_date" : "2011-09-15",
        "epoch_date_close_approach" : 1316070000000,
        "relative_velocity" : {
          "kilometers_per_second" : "11.7081526968",
          "kilometers_per_hour" : "42149.3497085732",
          "miles_per_hour" : "26189.9667675299"
        },
        "miss_distance" : {
          "astronomical" : "0.184775527",
          "lunar" : "71.8776779175",
          "kilometers" : "27642026",
          "miles" : "17175958"
        },
        "orbiting_body" : "Earth"
      } ],
      "orbital_data" : {
        "orbit_id" : "12",
        "orbit_determination_date" : "2017-04-06 08:36:12",
        "orbit_uncertainty" : "4",
        "minimum_orbit_intersection" : ".00574255",
        "jupiter_tisserand_invariant" : "6.193",
        "epoch_osculation" : "2458000.5",
        "eccentricity" : ".1976216350701238",
        "semi_major_axis" : ".9734171702707322",
        "inclination" : "1.043154981731169",
        "ascending_node_longitude" : "290.2095043686886",
        "orbital_period" : "350.7897789441883",
        "perihelion_distance" : ".7810488774764969",
        "perihelion_argument" : "303.1159486022414",
        "aphelion_distance" : "1.165785463064967",
        "perihelion_time" : "2457833.621603113462",
        "mean_anomaly" : "171.2599011863232",
        "mean_motion" : "1.026255671084639",
        "equinox" : "J2000"
      }
    } ]
  }
}